STARLINK-1707           
1 46359U 20062AL  26166.25002315  .00227049  30178-4  70560-3 0  9994
2 46359  53.0172 147.7656 0006397  44.1116 248.1184 15.91187666  5963
STARLINK-1724           
1 46375U 20062BC  26166.19143666  .00069100  00000+0  52242-3 0  9995
2 46375  53.0196 169.7904 0005366 352.5230   7.5706 15.71799202320819
STARLINK-1770           
1 46383U 20062BL  26165.80928277  .00084318  00000+0  47397-3 0  9993
2 46383  53.0360 194.6654 0003499 346.3154  13.7771 15.78544900320430
STARLINK-1771           
1 46384U 20062BM  26165.44049050  .00039552  00000+0  42927-3 0  9991
2 46384  53.0368 238.7012 0003430  22.8106 337.3060 15.63129744319786
GAOFEN-11 02            
1 46396U 20064A   26166.22707808  .00004872  00000+0  20601-3 0  9997
2 46396  97.5143 292.2409 0016415 309.7400  50.2390 15.23584198321233
JILIN-1 GAOFEN 3E       
1 46457U 20065D   26166.17395640  .00051776  00000+0  55843-3 0  9998
2 46457  97.2247 218.7363 0012807 163.2306 196.9379 15.63416950319443
JILIN-1 GAOFEN 3F       
1 46458U 20065E   26166.19543272  .00046127  00000+0  55195-3 0  9991
2 46458  97.2203 216.1034 0014341 152.4420 207.7601 15.60726087319390
JILIN-1 GAOFEN 3G       
1 46459U 20065F   26166.17330867  .00077289  00000+0  61572-3 0  9993
2 46459  97.2271 222.8510 0008708  71.7246 288.4964 15.70899986319622
JILIN-1 GAOFEN 3H       
1 46460U 20065G   26166.20436199  .00061458  00000+0  56427-3 0  9998
2 46460  97.2218 219.2232 0003692   2.1272 358.0004 15.67531686319579
HAIYANG-2C              
1 46469U 20066A   26166.21382701  .00000215  00000+0  26856-3 0  9995
2 46469  65.9968 220.1972 0008990 238.2043 121.8150 13.83375981289224
HJ-2A                   
1 46478U 20067A   26166.19992156  .00000967  00000+0  14590-3 0  9990
2 46478  97.8834 244.6190 0002359 278.2802  81.8140 14.76515639307968
HJ-2B                   
1 46479U 20067B   26166.23686461  .00000361  00000+0  58890-4 0  9995
2 46479  97.8897 245.6749 0001209  96.9968 263.1380 14.76555100307979
GONETS-M 17             
1 46486U 20068A   26166.19697831  .00000058  00000+0  34437-3 0  9995
2 46486  82.4984 348.7414 0023176  41.6301 318.6538 12.42873320258911
GONETS-M 18             
1 46487U 20068B   26166.16063495  .00000123  00000+0  81928-3 0  9996
2 46487  82.4938 347.8825 0020419  38.4538 321.7992 12.42873808258897
GONETS-M 19             
1 46488U 20068C   26166.13608081  .00000082  00000+0  51667-3 0  9991
2 46488  82.4963 348.3479 0014322  53.7832 306.4570 12.42892425258999
DEKART                  
1 46493U 20068H   26166.05884218  .00010859  00000+0  29921-3 0  9997
2 46493  97.8733 175.1763 0007047 296.0768  63.9750 15.37309245315447
NORBI                   
1 46494U 20068J   26166.08906918  .00020675  00000+0  39173-3 0  9990
2 46494  97.8616 181.8691 0004647 255.2359 104.8376 15.48379148315886
SALSAT                  
1 46495U 20068K   26165.98698010  .00006897  00000+0  24187-3 0  9999
2 46495  97.8843 168.9175 0008203 317.5916  42.4688 15.29772719315024
ICEYE-X7                
1 46496U 20068L   26166.18154882  .00012194  00000+0  40336-3 0  9998
2 46496  97.7493 132.6172 0006740 351.1647   8.9474 15.31481927314489
ICEYE-X6                
1 46497U 20068M   26166.06310469  .00003444  00000+0  25054-3 0  9999
2 46497  98.0971 159.6325 0008589  96.5867 263.6335 15.04512899312916
NETSAT-4                
1 46504U 20068U   26165.98588677  .00016429  00000+0  36460-3 0  9996
2 46504  97.8597 174.0498 0004154 348.1192  11.9955 15.43802576315438
NETSAT-3                
1 46505U 20068V   26165.99046970  .00016798  00000+0  38784-3 0  9993
2 46505  97.8646 172.2736 0004501   9.9261 350.2073 15.42612738315342
NETSAT-1                
1 46506U 20068W   26165.98368124  .00011173  00000+0  33564-3 0  9994
2 46506  97.8739 166.6236 0005291  39.0774 321.0848 15.34599415314968
NETSAT-2                
1 46507U 20068X   26165.96423858  .00020875  00000+0  43051-3 0  9990
2 46507  97.8608 173.9130 0003742  33.1774 326.9708 15.45916537315399
STARLINK-1663           
1 46535U 20070D   26166.25002315  .00399610  78340-4  80618-3 0  9991
2 46535  53.0290   7.9594 0002051 273.7323  34.7251 15.99114773  6019
STARLINK-1672           
1 46537U 20070F   26165.82634502  .00056603  00000+0  62389-3 0  9994
2 46537  53.0446  27.5873 0002983  80.4524 279.6827 15.62577618315172
STARLINK-1678           
1 46538U 20070G   26166.25002315  .00211602  27363-4  70366-3 0  9996
2 46538  53.0310 346.0404 0004421 248.2413  78.6768 15.89903853  6005
STARLINK-1664           
1 46553U 20070X   26165.90014448  .00072031  00000+0  12145-2 0  9999
2 46553  53.0437  29.9789 0003419 139.6265 220.4997 15.51035840315149
STARLINK-1676           
1 46556U 20070AA  26165.85499034  .00089230  00000+0  70678-3 0  9999
2 46556  53.0385  30.6436 0006011 103.1896 256.9792 15.70580042315135
STARLINK-1679           
1 46557U 20070AB  26166.25002315  .00157493  00000+0  58414-3 0  9998
2 46557  53.0390   2.3594 0002347 272.2230 205.8489 15.87144457  5980
