OBJECT_NAME,OBJECT_ID,EPOCH,MEAN_MOTION,ECCENTRICITY,INCLINATION,RA_OF_ASC_NODE,ARG_OF_PERICENTER,MEAN_ANOMALY,EPHEMERIS_TYPE,CLASSIFICATION_TYPE,NORAD_CAT_ID,ELEMENT_SET_NO,REV_AT_EPOCH,BSTAR,MEAN_MOTION_DOT,MEAN_MOTION_DDOT
STARLINK-1707,2020-062AL,2026-06-15T06:00:02.000160,15.91187666,.0006397,53.0172,147.7656,44.1116,248.1184,0,U,46359,999,596,.7056E-3,.227049E-2,.30178E-4
STARLINK-1724,2020-062BC,2026-06-15T04:35:40.127424,15.71799202,.0005366,53.0196,169.7904,352.5230,7.5706,0,U,46375,999,32081,.52242E-3,.691E-3,0
STARLINK-1770,2020-062BL,2026-06-14T19:25:22.031328,15.78544900,.00034995,53.0360,194.6654,346.3154,13.7771,0,U,46383,999,32043,.4739667E-3,.84318E-3,0
STARLINK-1771,2020-062BM,2026-06-14T10:34:18.379200,15.63129744,.00034301,53.0368,238.7012,22.8106,337.3060,0,U,46384,999,31978,.42926677E-3,.39552E-3,0
GAOFEN-11 02,2020-064A,2026-06-15T05:26:59.546112,15.23584198,.0016415,97.5143,292.2409,309.7400,50.2390,0,U,46396,999,32123,.20601E-3,.4872E-4,0
JILIN-1 GAOFEN 3E,2020-065D,2026-06-15T04:10:29.832960,15.63416950,.0012807,97.2247,218.7363,163.2306,196.9379,0,U,46457,999,31944,.55843E-3,.51776E-3,0
JILIN-1 GAOFEN 3F,2020-065E,2026-06-15T04:41:25.387008,15.60726087,.0014341,97.2203,216.1034,152.4420,207.7601,0,U,46458,999,31939,.55195E-3,.46127E-3,0
JILIN-1 GAOFEN 3G,2020-065F,2026-06-15T04:09:33.869088,15.70899986,.0008708,97.2271,222.8510,71.7246,288.4964,0,U,46459,999,31962,.61572E-3,.77289E-3,0
JILIN-1 GAOFEN 3H,2020-065G,2026-06-15T04:54:16.875936,15.67531686,.0003692,97.2218,219.2232,2.1272,358.0004,0,U,46460,999,31957,.56427E-3,.61458E-3,0
HAIYANG-2C,2020-066A,2026-06-15T05:07:54.653664,13.83375981,.000899,65.9968,220.1972,238.2043,121.8150,0,U,46469,999,28922,.26856E-3,.215E-5,0
HJ-2A,2020-067A,2026-06-15T04:47:53.222784,14.76515639,.0002359,97.8834,244.6190,278.2802,81.8140,0,U,46478,999,30796,.1459E-3,.967E-5,0
HJ-2B,2020-067B,2026-06-15T05:41:05.102304,14.76555100,.0001209,97.8897,245.6749,96.9968,263.1380,0,U,46479,999,30797,.5889E-4,.361E-5,0
GONETS-M 17,2020-068A,2026-06-15T04:43:38.925984,12.42873320,.0023176,82.4984,348.7414,41.6301,318.6538,0,U,46486,999,25891,.34437E-3,.58E-6,0
GONETS-M 18,2020-068B,2026-06-15T03:51:18.859680,12.42873808,.0020419,82.4938,347.8825,38.4538,321.7992,0,U,46487,999,25889,.81928E-3,.123E-5,0
GONETS-M 19,2020-068C,2026-06-15T03:15:57.381984,12.42892425,.0014322,82.4963,348.3479,53.7832,306.4570,0,U,46488,999,25899,.51667E-3,.82E-6,0
DEKART,2020-068H,2026-06-15T01:24:43.964352,15.37309245,.0007047,97.8733,175.1763,296.0768,63.9750,0,U,46493,999,31544,.29921E-3,.10859E-3,0
NORBI,2020-068J,2026-06-15T02:08:15.577152,15.48379148,.0004647,97.8616,181.8691,255.2359,104.8376,0,U,46494,999,31588,.39173E-3,.20675E-3,0
SALSAT,2020-068K,2026-06-14T23:41:15.080640,15.29772719,.0008203,97.8843,168.9175,317.5916,42.4688,0,U,46495,999,31502,.24187E-3,.6897E-4,0
ICEYE-X7,2020-068L,2026-06-15T04:21:25.818048,15.31481927,.000674,97.7493,132.6172,351.1647,8.9474,0,U,46496,999,31448,.40336E-3,.12194E-3,0
ICEYE-X6,2020-068M,2026-06-15T01:30:52.245216,15.04512899,.0008589,98.0971,159.6325,96.5867,263.6335,0,U,46497,999,31291,.25054E-3,.3444E-4,0
NETSAT-4,2020-068U,2026-06-14T23:39:40.616928,15.43802576,.0004154,97.8597,174.0498,348.1192,11.9955,0,U,46504,999,31543,.3646E-3,.16429E-3,0
NETSAT-3,2020-068V,2026-06-14T23:46:16.582080,15.42612738,.0004501,97.8646,172.2736,9.9261,350.2073,0,U,46505,999,31534,.38784E-3,.16798E-3,0
NETSAT-1,2020-068W,2026-06-14T23:36:30.059136,15.34599415,.0005291,97.8739,166.6236,39.0774,321.0848,0,U,46506,999,31496,.33564E-3,.11173E-3,0
NETSAT-2,2020-068X,2026-06-14T23:08:30.213312,15.45916537,.0003742,97.8608,173.9130,33.1774,326.9708,0,U,46507,999,31539,.43051E-3,.20875E-3,0
STARLINK-1663,2020-070D,2026-06-15T06:00:02.000160,15.99114773,.0002051,53.0290,7.9594,273.7323,34.7251,0,U,46535,999,601,.80618E-3,.39961E-2,.7834E-4
STARLINK-1672,2020-070F,2026-06-14T19:49:56.209728,15.62577618,.00029835,53.0446,27.5873,80.4524,279.6827,0,U,46537,999,31517,.62388809E-3,.56603E-3,0
STARLINK-1678,2020-070G,2026-06-15T06:00:02.000160,15.89903853,.0004421,53.0310,346.0404,248.2413,78.6768,0,U,46538,999,600,.70366E-3,.211602E-2,.27363E-4
STARLINK-1664,2020-070X,2026-06-14T21:36:12.483072,15.51035840,.0003419,53.0437,29.9789,139.6265,220.4997,0,U,46553,999,31514,.12145E-2,.72031E-3,0
STARLINK-1676,2020-070AA,2026-06-14T20:31:11.165376,15.70580042,.00060112,53.0385,30.6436,103.1896,256.9792,0,U,46556,999,31513,.70678122E-3,.8923E-3,0
STARLINK-1679,2020-070AB,2026-06-15T06:00:02.000160,15.87144457,.0002347,53.0390,2.3594,272.2230,205.8489,0,U,46557,999,598,.58414E-3,.157493E-2,0
